#aV2013  1  2  0  0  0.00000000     288 DD+AD WGS84 FIT  NGA
## 1721 259200.00000000   300.00000000 56294 0.0000000000000
+   31     1  2  3  4  5  6  7  8  9 10 11 12 13 14 15 16 17
+         18 19 20 21 22 23 24 25 26 28 29 30 31 32  0  0  0
+          0  0  0  0  0  0  0  0  0  0  0  0  0  0  0  0  0
+          0  0  0  0  0  0  0  0  0  0  0  0  0  0  0  0  0
+          0  0  0  0  0  0  0  0  0  0  0  0  0  0  0  0  0
++         2  2  2  2  2  2  2  2  2  2  2  2  2  2  2  2  2
++         2  2  2  2  2  2  2  2  2  2  2  2  2  2  2  0  0
++         0  0  0  0  0  0  0  0  0  0  0  0  0  0  0  0  0
++         0  0  0  0  0  0  0  0  0  0  0  0  0  0  0  0  0
++         0  0  0  0  0  0  0  0  0  0  0  0  0  0  0  0  0
%c cc cc ccc ccc cccc cccc cccc cccc ccccc ccccc ccccc ccccc
%c cc cc ccc ccc cccc cccc cccc cccc ccccc ccccc ccccc ccccc
%f  0.0000000  0.000000000  0.00000000000  0.000000000000000
%f  0.0000000  0.000000000  0.00000000000  0.000000000000000
%i    0    0    0    0      0      0      0      0         0
%i    0    0    0    0      0      0      0      0         0
/*      NGA, ST. LOUIS,MO.                                  
/*   EPHEMERIS COMPUTED FROM  1 DAYS OF DATA
/*   EPOCHA SMOOTHER  
/* CCCCCCCCCCCCCCCCCCCCCCCCCCCCCCCCCCCCCCCCCCCCCCCCCCCCCCCCC
*  2013  1  2  3  0  0.00000000                                                 
P  1 -20311.379315 -14117.083527  -9787.407261    290.902912                    
V  1  12519.734548   1611.035660 -28309.828863      0.022361                    
P  2    104.591838  16322.495398  21183.305064    413.407927                    
V  2 -25400.252597  -7668.158496   5567.818998      0.013136                    
P  3   3761.672056 -21649.739961 -15255.292205    149.671216                    
V  3  14170.542923 -12429.892673  22092.850115      0.050682                    
P  4 -16114.212899   9171.969236  18841.529104     92.776743                    
V  4 -22716.529353  -9299.931562 -14394.393871      0.111163                    
P  5   2695.247167  26110.677192   3475.904594   -376.267768                    
V  5  -4089.556978  -3746.837385  31177.200459     -0.021264                    
P  6  10728.628299 -21587.610352 -10667.633327    403.337392                    
V  6  12151.385840  -7406.385560  27298.711568     -0.134896                    
P  7 -25633.037067  -5904.948958  -4619.062989    164.084132                    
V  7  -4817.045404  -3927.470943  31184.692130      0.044061                    
P  8 -21898.692664    745.942965 -15322.985042      3.760079                    
V  8 -17197.373430  -8883.402929  23418.299245      0.002637                    
P  9   9999.347754  16479.001598 -18779.757839    210.777331                    
V  9 -21866.723693  -6208.925720 -17657.394847      0.026333                    
P 10 -10245.860979  16239.127212  17889.795566    -64.562865                    
V 10  -6246.490510 -22749.288890  17218.674126     -0.015002                    
P 11 -16020.049061 -14032.882018 -16461.578547   -339.332176                    
V 11  20387.244917  -1991.217993 -18340.203992     -0.038396                    
P 12  11559.865548  20855.234730  11887.519611    110.108806                    
V 12    858.875574  15084.877311 -27065.566620      0.020597                    
P 13 -19962.566663     44.268460  17438.533413    155.661912                    
V 13  17397.961959 -14035.367215  19688.270475     -0.028718                    
P 14  22010.189823 -14434.608549  -2736.715092    219.061584                    
V 14  -1481.845875   4198.592607 -31938.532925      0.004859                    
P 15   5873.056488  15242.580875 -20919.602852   -103.918853                    
V 15 -20168.569665  17421.249476   7283.361693     -0.010985                    
P 16   -853.306944 -25979.885102   4511.042289   -251.424541                    
V 16   3166.764359   5365.830570  31773.694499     -0.003537                    
P 17 -21135.117745  15769.224477  -1534.582706     63.711641                    
V 17   -124.050502  -3645.665209 -31924.884079     -0.035919                    
P 18  16058.661949   1012.895176 -20785.184369    232.337189                    
V 18   4777.232428  26954.075167   4565.689222      0.018576                    
P 19  -1902.381308 -16483.005484 -20725.754316   -336.214418                    
V 19  21830.804918 -14591.547637  10035.516823     -0.033042                    
P 20 -13879.264687 -19321.872227  11711.536392     78.523395                    
V 20   -597.963436 -15503.050234 -25827.366976      0.013498                    
P 21  25497.910344   2963.526248  -7315.464053   -272.030857                    
V 21   8326.411893   6203.795757  28865.048760     -0.023161                    
P 22  12115.989701 -13490.721550 -19183.234488    154.771959                    
V 22   6400.487775  24149.001233 -12947.575626      0.008220                    
P 23 -12874.321420  -8929.099803  21544.099544    128.060526                    
V 23  20507.580374 -17844.759850   4496.175520     -0.037856                    
P 24  17560.840820  15273.889591 -12816.055681      1.347979                    
V 24 -16172.250055  -2922.977606 -25617.650358     -0.006171                    
P 25  15474.984270   9567.792136  19341.214940     60.144298                    
V 25   3854.824023  24304.198941 -15002.910354      0.024268                    
P 26  -7153.561116  19378.172592 -17117.625085   -153.482896                    
V 26 -17521.225035  10991.505399  20872.025124      0.136072                    
P 28 -12766.530726   9083.332176 -20831.861422    219.593717                    
V 28  -4717.992997 -27401.479264  -9009.498649      0.035054                    
P 29  19440.935116    552.016129  18124.139553    393.647477                    
V 29 -16980.959447  15450.929880  17833.250004      0.039380                    
P 30   3863.327542 -21742.194093  14421.505335   -265.115901                    
V 30   7593.833760  17455.338552  23685.773848      0.123506                    
P 31  11674.343187 -11004.715502  21408.712781    295.465660                    
V 31  24866.882481   9521.099551  -8485.720234      0.020229                    
P 32  -7114.277996 -25191.578818   6058.405170   -522.370668                    
V 32   1769.434990  -7632.847755 -29940.792754     -0.034575                    
EOF
